#aV2010  6  7  0  0   .00000000      96 DD+AD WGS84 FIT  NGA
## 1587  86400.00000000   900.00000000 55354  .0000000000000
+   31     1  2  3  4  5  6  7  8  9 10 11 12 13 14 15 16 17
+         18 19 20 21 22 23 24 26 27 28 29 30 31 32  0  0  0
+          0  0  0  0  0  0  0  0  0  0  0  0  0  0  0  0  0
+          0  0  0  0  0  0  0  0  0  0  0  0  0  0  0  0  0
+          0  0  0  0  0  0  0  0  0  0  0  0  0  0  0  0  0
++         0  0  0  0  0  0  0  0  0  0  0  0  0  0  0  0  0
++         0  0  0  0  0  0  0  0  0  0  0  0  0  0  0  0  0
++         0  0  0  0  0  0  0  0  0  0  0  0  0  0  0  0  0
++         0  0  0  0  0  0  0  0  0  0  0  0  0  0  0  0  0
++         0  0  0  0  0  0  0  0  0  0  0  0  0  0  0  0  0
%c cc cc ccc ccc cccc cccc cccc cccc ccccc ccccc ccccc ccccc
%c cc cc ccc ccc cccc cccc cccc cccc ccccc ccccc ccccc ccccc
%f  0.0000000  0.000000000  0.00000000000  0.000000000000000
%f  0.0000000  0.000000000  0.00000000000  0.000000000000000
%i    0    0    0    0      0      0      0      0         0
%i    0    0    0    0      0      0      0      0         0
/*      NGA, ST. LOUIS,MO.                                  
/*   EPHEMERIS COMPUTED FROM  3 DAYS OF DATA                
/* CCCCCCCCCCCCCCCCCCCCCCCCCCCCCCCCCCCCCCCCCCCCCCCCCCCCCCCCC
/* CCCCCCCCCCCCCCCCCCCCCCCCCCCCCCCCCCCCCCCCCCCCCCCCCCCCCCCCC
*  2010  6  7  4 45   .00000000                                                 
P  1  -6308.146256  24536.672399  -7875.005283   -128.049256                    
V  1  -6765.859245   7634.617536  29792.876437      -.040330                    
P  2 -13691.721306 -22972.526308   1910.793585    262.455158                    
V  2   3902.285846    305.498760  30861.181848       .032879                    
P  3  15091.251670  11782.988174 -18907.235863    565.037669                    
V  3 -22649.844383   5523.974873 -14581.324447       .049672                    
P  4  -2217.189027 -22242.585888  13897.721832     98.551887                    
V  4  12301.762525  13646.981273  23871.918137       .081408                    
P  5  -6834.489767 -16723.368553 -19458.308297     -5.998205                    
V  5  12368.830295 -21428.549554  14165.688540      -.018647                    
P  6  10216.787800  13873.417107 -20068.199414    616.091222                    
V  6 -25695.929337   3780.271812 -10225.042678      -.123674                    
P  7  13186.593919  -7172.193240 -21929.246792     -1.056711                    
V  7  14977.905816  23387.832276   1191.277527      -.002415                    
P  8   4683.302220 -17505.766630 -19228.963373      5.693015                    
V  8  12817.920099  20908.778026 -16437.886757       .001600                    
P  9 -19139.999938 -12599.446037  12919.524895     11.061355                    
V  9  -8203.293619 -15296.997966 -25943.033252       .022653                    
P 10   1626.803324 -22862.227900 -13298.947495    -44.052728                    
V 10  10249.014368 -13490.568145  25130.244618      -.007718                    
P 11  22024.480989   5512.383715  13795.186458    -67.401646                    
V 11  10583.284806  15051.890725 -22114.814764      -.024590                    
P 12 -16510.483389    871.976797  20798.276466   -106.884387                    
V 12  11458.549205 -23698.306766  10262.745138       .041728                    
P 13  24694.596959  -5107.758644  -8539.121574    303.579888                    
V 13  10569.409730   1805.078572  29946.889481      -.004613                    
P 14  -8263.243375  14003.975928  21109.958187     54.265140                    
V 14 -26450.496951   -587.726693 -10155.989335       .042363                    
P 15 -22578.147103  -7117.997394 -12149.313242   -260.577251                    
V 15  15218.845495  -3479.167717 -26096.789585       .064960                    
P 16   1761.347408  20450.305218 -16659.272977    -79.016597                    
V 16 -11780.931728  17848.971896  20887.610698      -.037070                    
P 17   9840.087577 -14355.963274  20107.501791    155.297794                    
V 17  25387.987150    488.794605 -12345.846335       .019831                    
P 18 -17238.743586  17492.712791  -9336.862838     73.072584                    
V 18   2760.721780 -12603.948859 -28280.721855       .024115                    
P 19  22867.924884   8347.011641 -10957.977877    -40.430923                    
V 19 -13918.365305   1919.119751 -27195.218847      -.027677                    
P 20  17511.483549  -3545.000045  19502.092712     55.005828                    
V 20  -9394.254771  23382.253736  12646.799965      -.005531                    
P 21 -11459.144094  10939.017993 -20922.783977    -65.382425                    
V 21 -15314.055828 -22902.369575  -4157.236532      -.026098                    
P 22 -11531.822432  23816.172560   1764.402362    170.353153                    
V 22  -4226.177796     40.146932 -31130.708342      -.009290                    
P 23  26717.325171   -514.685748    889.418123    367.976612                    
V 23  -1050.547580   2371.790385  31668.898463      -.014731                    
P 24   -361.944653  21630.834137 -15504.815836    294.055927                    
V 24 -11661.617636 -16080.878065 -21800.990359       .032803                    
P 26 -24844.545247  -5968.438364  -8517.914340    -62.519003                    
V 26   9934.062213  -1151.491628 -29716.149440      -.054526                    
P 27 -19745.498654 -14510.777196  11124.464774    158.779540                    
V 27  -6286.957922 -11529.438673 -27765.619424       .034327                    
P 28  12918.247693 -23016.596236   -126.983380    -14.223241                    
V 28   2056.278292   1988.104043 -32165.341860       .010726                    
P 29 -24837.485239   5634.353602  -7370.336942    125.541690                    
V 29  -9546.144124  -2541.503680  29885.327312       .028916                    
P 30 -17422.728806  13146.996385  14701.878842    249.610989                    
V 30   5969.751081 -18601.256171  23140.201024       .034287                    
P 31   4485.607994  22894.227461  12732.781867    -32.310718                    
V 31 -10219.794231 -12306.814001  26320.103455       .022081                    
P 32  14194.039222   6238.080293  21884.948805    -10.094289                    
V 32 -13997.616305  23106.543227   2867.447532      -.085205                    
EOF
